start=new Date('2022-08-30T00:00:00.000Z').valueOf();
sats=[{"COUNTRY_CODE":"US","PERIOD":"95.438","TIME_SYSTEM":"UTC","CLASSIFICATION_TYPE":"U","APOAPSIS":"540.939","MEAN_MOTION_DDOT":"0.0000000000000","EPOCH":"2022-08-29T13:44:26.064960","LAUNCH_DATE":"2022-01-19","RA_OF_ASC_NODE":"311.7032","NORAD_CAT_ID":"51111","OBJECT_TYPE":"PAYLOAD","MEAN_MOTION_DOT":"0.00000394","BSTAR":"0.00004282600000","REV_AT_EPOCH":"3441","PERIAPSIS":"538.562","SEMIMAJOR_AXIS":"6917.886","OBJECT_ID":"2022-005H","TLE_LINE2":"2 51111  53.2189 311.7032 0001718  61.0647 299.0517 15.08838200 34417","ECCENTRICITY":"0.00017180","GP_ID":"211287867","OBJECT_NAME":"STARLINK-3173","MEAN_ANOMALY":"299.0517","ARG_OF_PERICENTER":"61.0647","RCS_SIZE":"LARGE","FILE":"3551093","INCLINATION":"53.2189","DECAY_DATE":null,"MEAN_MOTION":"15.08838200","TLE_LINE1":"1 51111U 22005H   22241.57252390  .00000394  00000-0  42826-4 0  9994","SITE":"AFETR","REF_FRAME":"TEME","MEAN_ELEMENT_THEORY":"SGP4","ELEMENT_SET_NO":"999","EPHEMERIS_TYPE":"0","CENTER_NAME":"EARTH"},{"ECCENTRICITY":"0.00017330","GP_ID":"211287618","TLE_LINE2":"2 51112  53.2197 311.6098 0001733  51.3331 308.7816 15.08838801 34425","MEAN_ANOMALY":"308.7816","ARG_OF_PERICENTER":"51.3331","OBJECT_NAME":"STARLINK-3374","RCS_SIZE":"LARGE","INCLINATION":"53.2197","FILE":"3551093","SITE":"AFETR","TLE_LINE1":"1 51112U 22005J   22241.59459883  .00000766  00000-0  66221-4 0  9991","DECAY_DATE":null,"MEAN_MOTION":"15.08838801","EPHEMERIS_TYPE":"0","CENTER_NAME":"EARTH","ELEMENT_SET_NO":"999","MEAN_ELEMENT_THEORY":"SGP4","REF_FRAME":"TEME","PERIOD":"95.438","COUNTRY_CODE":"US","TIME_SYSTEM":"UTC","CLASSIFICATION_TYPE":"U","APOAPSIS":"540.948","LAUNCH_DATE":"2022-01-19","EPOCH":"2022-08-29T14:16:13.338912","RA_OF_ASC_NODE":"311.6098","MEAN_MOTION_DDOT":"0.0000000000000","OBJECT_TYPE":"PAYLOAD","NORAD_CAT_ID":"51112","SEMIMAJOR_AXIS":"6917.884","PERIAPSIS":"538.550","BSTAR":"0.00006622100000","REV_AT_EPOCH":"3442","MEAN_MOTION_DOT":"0.00000766","OBJECT_ID":"2022-005J"},{"APOAPSIS":"540.697","CLASSIFICATION_TYPE":"U","TIME_SYSTEM":"UTC","PERIOD":"95.437","COUNTRY_CODE":"US","OBJECT_ID":"2022-005K","PERIAPSIS":"538.767","SEMIMAJOR_AXIS":"6917.867","MEAN_MOTION_DOT":"0.00003060","BSTAR":"0.00021027000000","REV_AT_EPOCH":"3439","OBJECT_TYPE":"PAYLOAD","NORAD_CAT_ID":"51113","EPOCH":"2022-08-29T10:49:33.278304","LAUNCH_DATE":"2022-01-19","RA_OF_ASC_NODE":"312.2405","MEAN_MOTION_DDOT":"0.0000000000000","RCS_SIZE":"LARGE","OBJECT_NAME":"STARLINK-3372","ARG_OF_PERICENTER":"52.7339","MEAN_ANOMALY":"307.3780","ECCENTRICITY":"0.00013950","GP_ID":"211256496","TLE_LINE2":"2 51113  53.2177 312.2405 0001395  52.7339 307.3780 15.08844457 34395","EPHEMERIS_TYPE":"0","CENTER_NAME":"EARTH","REF_FRAME":"TEME","MEAN_ELEMENT_THEORY":"SGP4","ELEMENT_SET_NO":"999","SITE":"AFETR","DECAY_DATE":null,"MEAN_MOTION":"15.08844457","TLE_LINE1":"1 51113U 22005K   22241.45107961  .00003060  00000-0  21027-3 0  9998","INCLINATION":"53.2177","FILE":"3550737"},{"CLASSIFICATION_TYPE":"U","APOAPSIS":"540.961","PERIOD":"95.438","COUNTRY_CODE":"US","TIME_SYSTEM":"UTC","PERIAPSIS":"538.592","SEMIMAJOR_AXIS":"6917.911","MEAN_MOTION_DOT":"0.00000280","REV_AT_EPOCH":"3551","BSTAR":"0.00003568100000","OBJECT_ID":"2022-005L","EPOCH":"2022-08-29T11:16:03.683712","LAUNCH_DATE":"2022-01-19","RA_OF_ASC_NODE":"312.1803","MEAN_MOTION_DDOT":"0.0000000000000","NORAD_CAT_ID":"51114","OBJECT_TYPE":"PAYLOAD","OBJECT_NAME":"STARLINK-3375","ARG_OF_PERICENTER":"51.9014","MEAN_ANOMALY":"308.2132","RCS_SIZE":"LARGE","ECCENTRICITY":"0.00017120","GP_ID":"211262627","TLE_LINE2":"2 51114  53.2174 312.1803 0001712  51.9014 308.2132 15.08829835 35517","SITE":"AFETR","DECAY_DATE":null,"MEAN_MOTION":"15.08829835","TLE_LINE1":"1 51114U 22005L   22241.46948708  .00000280  00000-0  35681-4 0  9995","EPHEMERIS_TYPE":"0","CENTER_NAME":"EARTH","MEAN_ELEMENT_THEORY":"SGP4","REF_FRAME":"TEME","ELEMENT_SET_NO":"999","INCLINATION":"53.2174","FILE":"3550995"},{"INCLINATION":"53.2177","FILE":"3550737","EPHEMERIS_TYPE":"0","CENTER_NAME":"EARTH","ELEMENT_SET_NO":"999","MEAN_ELEMENT_THEORY":"SGP4","REF_FRAME":"TEME","SITE":"AFETR","TLE_LINE1":"1 51115U 22005M   22241.44372228 -.00001100  00000-0 -51009-4 0  9998","DECAY_DATE":null,"MEAN_MOTION":"15.08837612","ECCENTRICITY":"0.00015710","GP_ID":"211255537","TLE_LINE2":"2 51115  53.2177 312.2723 0001571  60.7845 299.3304 15.08837612 34394","RCS_SIZE":"LARGE","ARG_OF_PERICENTER":"60.7845","MEAN_ANOMALY":"299.3304","OBJECT_NAME":"STARLINK-3397","OBJECT_TYPE":"PAYLOAD","NORAD_CAT_ID":"51115","EPOCH":"2022-08-29T10:38:57.604992","LAUNCH_DATE":"2022-01-19","RA_OF_ASC_NODE":"312.2723","MEAN_MOTION_DDOT":"0.0000000000000","OBJECT_ID":"2022-005M","SEMIMAJOR_AXIS":"6917.888","PERIAPSIS":"538.666","BSTAR":"-0.00005100900000","REV_AT_EPOCH":"3439","MEAN_MOTION_DOT":"-0.00001100","TIME_SYSTEM":"UTC","PERIOD":"95.438","COUNTRY_CODE":"US","APOAPSIS":"540.839","CLASSIFICATION_TYPE":"U"},{"GP_ID":"211288118","ECCENTRICITY":"0.00014820","TLE_LINE2":"2 51116  53.2181 311.3180 0001482  52.9702 307.1426 15.08837721 34421","OBJECT_NAME":"STARLINK-3243","ARG_OF_PERICENTER":"52.9702","MEAN_ANOMALY":"307.1426","RCS_SIZE":"LARGE","INCLINATION":"53.2181","FILE":"3551093","SITE":"AFETR","DECAY_DATE":null,"MEAN_MOTION":"15.08837721","TLE_LINE1":"1 51116U 22005N   22241.65716102  .00000317  00000-0  37992-4 0  9997","EPHEMERIS_TYPE":"0","CENTER_NAME":"EARTH","REF_FRAME":"TEME","MEAN_ELEMENT_THEORY":"SGP4","ELEMENT_SET_NO":"999","PERIOD":"95.438","COUNTRY_CODE":"US","TIME_SYSTEM":"UTC","CLASSIFICATION_TYPE":"U","APOAPSIS":"540.778","RA_OF_ASC_NODE":"311.3180","LAUNCH_DATE":"2022-01-19","EPOCH":"2022-08-29T15:46:18.712128","MEAN_MOTION_DDOT":"0.0000000000000","NORAD_CAT_ID":"51116","OBJECT_TYPE":"PAYLOAD","PERIAPSIS":"538.727","SEMIMAJOR_AXIS":"6917.887","MEAN_MOTION_DOT":"0.00000317","REV_AT_EPOCH":"3442","BSTAR":"0.00003799200000","OBJECT_ID":"2022-005N"},{"OBJECT_ID":"2022-005P","PERIAPSIS":"538.732","SEMIMAJOR_AXIS":"6917.899","MEAN_MOTION_DOT":"0.00000071","BSTAR":"0.00002257400000","REV_AT_EPOCH":"3439","NORAD_CAT_ID":"51117","OBJECT_TYPE":"PAYLOAD","RA_OF_ASC_NODE":"312.3440","LAUNCH_DATE":"2022-01-19","EPOCH":"2022-08-29T10:17:45.371904","MEAN_MOTION_DDOT":"0.0000000000000","APOAPSIS":"540.797","CLASSIFICATION_TYPE":"U","TIME_SYSTEM":"UTC","PERIOD":"95.438","COUNTRY_CODE":"US","EPHEMERIS_TYPE":"0","CENTER_NAME":"EARTH","MEAN_ELEMENT_THEORY":"SGP4","REF_FRAME":"TEME","ELEMENT_SET_NO":"999","SITE":"AFETR","MEAN_MOTION":"15.08833749","DECAY_DATE":null,"TLE_LINE1":"1 51117U 22005P   22241.42899736  .00000071  00000-0  22574-4 0  9995","INCLINATION":"53.2183","FILE":"3550737","RCS_SIZE":"LARGE","OBJECT_NAME":"STARLINK-3391","MEAN_ANOMALY":"299.4119","ARG_OF_PERICENTER":"60.7022","ECCENTRICITY":"0.00014930","GP_ID":"211255996","TLE_LINE2":"2 51117  53.2183 312.3440 0001493  60.7022 299.4119 15.08833749 34392"},{"INCLINATION":"53.2180","FILE":"3550737","CENTER_NAME":"EARTH","EPHEMERIS_TYPE":"0","ELEMENT_SET_NO":"999","MEAN_ELEMENT_THEORY":"SGP4","REF_FRAME":"TEME","SITE":"AFETR","TLE_LINE1":"1 51118U 22005Q   22241.51363925  .00000975  00000-0  79330-4 0  9997","DECAY_DATE":null,"MEAN_MOTION":"15.08839573","ECCENTRICITY":"0.00017140","GP_ID":"211254787","TLE_LINE2":"2 51118  53.2180 311.9611 0001714  50.2502 309.8641 15.08839573 34407","RCS_SIZE":"LARGE","ARG_OF_PERICENTER":"50.2502","MEAN_ANOMALY":"309.8641","OBJECT_NAME":"STARLINK-3394","OBJECT_TYPE":"PAYLOAD","NORAD_CAT_ID":"51118","LAUNCH_DATE":"2022-01-19","RA_OF_ASC_NODE":"311.9611","EPOCH":"2022-08-29T12:19:38.431200","MEAN_MOTION_DDOT":"0.0000000000000","OBJECT_ID":"2022-005Q","SEMIMAJOR_AXIS":"6917.882","PERIAPSIS":"538.561","BSTAR":"0.00007933000000","REV_AT_EPOCH":"3440","MEAN_MOTION_DOT":"0.00000975","TIME_SYSTEM":"UTC","PERIOD":"95.438","COUNTRY_CODE":"US","APOAPSIS":"540.932","CLASSIFICATION_TYPE":"U"},{"INCLINATION":"53.2181","FILE":"3551093","EPHEMERIS_TYPE":"0","CENTER_NAME":"EARTH","ELEMENT_SET_NO":"999","MEAN_ELEMENT_THEORY":"SGP4","REF_FRAME":"TEME","SITE":"AFETR","TLE_LINE1":"1 51119U 22005R   22241.69028478 -.00001354  00000-0 -67024-4 0  9999","MEAN_MOTION":"15.08829135","DECAY_DATE":null,"GP_ID":"211287868","ECCENTRICITY":"0.00016990","TLE_LINE2":"2 51119  53.2181 311.1836 0001699  56.2680 303.8474 15.08829135 34439","RCS_SIZE":"LARGE","MEAN_ANOMALY":"303.8474","ARG_OF_PERICENTER":"56.2680","OBJECT_NAME":"STARLINK-3390","NORAD_CAT_ID":"51119","OBJECT_TYPE":"PAYLOAD","LAUNCH_DATE":"2022-01-19","EPOCH":"2022-08-29T16:34:00.604992","RA_OF_ASC_NODE":"311.1836","MEAN_MOTION_DDOT":"0.0000000000000","OBJECT_ID":"2022-005R","SEMIMAJOR_AXIS":"6917.914","PERIAPSIS":"538.603","BSTAR":"-0.00006702400000","REV_AT_EPOCH":"3443","MEAN_MOTION_DOT":"-0.00001354","TIME_SYSTEM":"UTC","PERIOD":"95.438","COUNTRY_CODE":"US","APOAPSIS":"540.954","CLASSIFICATION_TYPE":"U"},{"MEAN_ANOMALY":"311.9312","ARG_OF_PERICENTER":"48.1832","OBJECT_NAME":"STARLINK-3398","RCS_SIZE":"LARGE","ECCENTRICITY":"0.00017860","GP_ID":"211287619","TLE_LINE2":"2 51120  53.2171 310.3296 0001786  48.1832 311.9312 15.08836617 34464","SITE":"AFETR","TLE_LINE1":"1 51120U 22005S   22241.88163990  .00000823  00000-0  69837-4 0  9993","DECAY_DATE":null,"MEAN_MOTION":"15.08836617","EPHEMERIS_TYPE":"0","CENTER_NAME":"EARTH","ELEMENT_SET_NO":"999","REF_FRAME":"TEME","MEAN_ELEMENT_THEORY":"SGP4","INCLINATION":"53.2171","FILE":"3551093","CLASSIFICATION_TYPE":"U","APOAPSIS":"540.991","PERIOD":"95.438","COUNTRY_CODE":"US","TIME_SYSTEM":"UTC","SEMIMAJOR_AXIS":"6917.891","PERIAPSIS":"538.520","BSTAR":"0.00006983700000","REV_AT_EPOCH":"3446","MEAN_MOTION_DOT":"0.00000823","OBJECT_ID":"2022-005S","RA_OF_ASC_NODE":"310.3296","LAUNCH_DATE":"2022-01-19","EPOCH":"2022-08-29T21:09:33.687360","MEAN_MOTION_DDOT":"0.0000000000000","OBJECT_TYPE":"PAYLOAD","NORAD_CAT_ID":"51120"}];
